*******************************************************************************
 Revised: July 31, 2013                  Earth                              399
 
 GEOPHYSICAL PROPERTIES (revised Aug 15, 2018):
  Vol. Mean Radius (km)    = 6371.01+-0.02   Mass x10^24 (kg)= 5.97219+-0.0006
  Equ. radius, km          = 6378.137        Mass layers:
  Polar axis, km           = 6356.752          Atmos         = 5.1   x 10^18 kg
  Flattening               = 1/298.257223563   oceans        = 1.4   x 10^21 kg
  Density, g/cm^3          = 5.51              crust         = 2.6   x 10^22 kg
  J2 (IERS 2010)           = 0.00108262545     mantle        = 4.043 x 10^24 kg
  g_p, m/s^2  (polar)      = 9.8321863685      outer core    = 1.835 x 10^24 kg
  g_e, m/s^2  (equatorial) = 9.7803267715      inner core    = 9.675 x 10^22 kg
  g_o, m/s^2               = 9.82022         Fluid core rad  = 3480 km
  GM, km^3/s^2             = 398600.435436   Inner core rad  = 1215 km
  GM 1-sigma, km^3/s^2     =      0.0014     Escape velocity = 11.186 km/s
  Rot. Rate (rad/s)        = 0.00007292115   Surface area:
  Mean sidereal day, hr    = 23.9344695944     land          = 1.48 x 10^8 km
  Mean solar day 2000.0, s = 86400.002         sea           = 3.62 x 10^8 km
  Mean solar day 1820.0, s = 86400.0         Love no., k2    = 0.299
  Moment of inertia        = 0.3308          Atm. pressure   = 1.0 bar
  Mean temperature, K      = 270             Volume, km^3    = 1.08321 x 10^12
  Mean effect. IR temp, K  = 255             Magnetic moment = 0.61 gauss Rp^3
  Geometric albedo         = 0.367           Vis. mag. V(1,0)= -3.86
  Solar Constant (W/m^2)   = 1367.6 (mean), 1414 (perihelion), 1322 (aphelion)
 HELIOCENTRIC ORBIT CHARACTERISTICS:
  Obliquity to orbit, deg  = 23.4392911  Sidereal orb period  = 1.0000174 y
  Orbital speed, km/s      = 29.79       Sidereal orb period  = 365.25636 d
  Mean daily motion, deg/d = 0.9856474   Hill's sphere radius = 234.9       
*******************************************************************************
 
 
*******************************************************************************
Ephemeris / WWW_USER Sat Mar 13 00:20:24 2021 Pasadena, USA      / Horizons
*******************************************************************************
Target body name: Earth (399)                     {source: DE431mx}
Center body name: Solar System Barycenter (0)     {source: DE431mx}
Center-site name: BODY CENTER
*******************************************************************************
Start time      : A.D. 2020-Apr-01 00:00:00.0000 TDB
Stop  time      : A.D. 2021-Apr-01 00:00:00.0000 TDB
Step-size       : 60 minutes
*******************************************************************************
Center geodetic : 0.00000000,0.00000000,0.0000000 {E-lon(deg),Lat(deg),Alt(km)}
Center cylindric: 0.00000000,0.00000000,0.0000000 {E-lon(deg),Dxy(km),Dz(km)}
Center radii    : (undefined)                                                  
Output units    : KM-S
Output type     : GEOMETRIC cartesian states
Output format   : 3 (position, velocity, LT, range, range-rate)
Reference frame : Ecliptic of J2000.0
*******************************************************************************
JDTDB
   X     Y     Z
   VX    VY    VZ
   LT    RG    RR
*******************************************************************************
$$SOE
2458943.250000000 = A.D. 2020-Apr-03 18:00:00.0000 TDB 
 X =-1.457393539377760E+08 Y =-3.553740059132519E+07 Z = 8.455439720330760E+03
 VX= 6.798580544226409E+00 VY=-2.899073721344947E+01 VZ= 9.089612851091999E-04
 LT= 5.003780104791709E+02 RG= 1.500095536907004E+08 RR= 2.628813452087099E-01
2458943.291666667 = A.D. 2020-Apr-03 19:00:00.0000 TDB 
 X =-1.457148419544998E+08 Y =-3.564175766577531E+07 Z = 8.458724930746481E+03
 VX= 6.819187059121476E+00 VY=-2.898541294106175E+01 VZ= 9.161717004531056E-04
 LT= 5.003811672121249E+02 RG= 1.500105000554320E+08 RR= 2.628769789099192E-01
2458943.333333333 = A.D. 2020-Apr-03 20:00:00.0000 TDB 
 X =-1.456902557973135E+08 Y =-3.574609554782335E+07 Z = 8.462036272110417E+03
 VX= 6.839788271391699E+00 VY=-2.898007477076296E+01 VZ= 9.234783962970283E-04
 LT= 5.003843238976856E+02 RG= 1.500114464059553E+08 RR= 2.628734515900153E-01
2458943.375000000 = A.D. 2020-Apr-03 21:00:00.0000 TDB 
 X =-1.456655954853141E+08 Y =-3.585041418746822E+07 Z = 8.465374090142548E+03
 VX= 6.860384176755738E+00 VY=-2.897472271999004E+01 VZ= 9.308808754973086E-04
 LT= 5.003874805459205E+02 RG= 1.500123927452887E+08 RR= 2.628707620226337E-01
2458943.416666667 = A.D. 2020-Apr-03 22:00:00.0000 TDB 
 X =-1.456408610376140E+08 Y =-3.595471353477163E+07 Z = 8.468738728735596E+03
 VX= 6.880974771135232E+00 VY=-2.896935680617906E+01 VZ= 9.383786230134916E-04
 LT= 5.003906371668815E+02 RG= 1.500133390764455E+08 RR= 2.628689088328926E-01
2458943.458333333 = A.D. 2020-Apr-03 23:00:00.0000 TDB 
 X =-1.456160524733398E+08 Y =-3.605899353985799E+07 Z = 8.472130529910326E+03
 VX= 6.901560050656340E+00 VY=-2.896397704676203E+01 VZ= 9.459711057946407E-04
 LT= 5.003937937706029E+02 RG= 1.500142854024341E+08 RR= 2.628678904953062E-01
2458943.500000000 = A.D. 2020-Apr-04 00:00:00.0000 TDB 
 X =-1.455911698116315E+08 Y =-3.616325415291449E+07 Z = 8.475549833718687E+03
 VX= 6.922140011651229E+00 VY=-2.895858345916358E+01 VZ= 9.536577726123596E-04
 LT= 5.003969503671001E+02 RG= 1.500152317262569E+08 RR= 2.628677053317307E-01
2458943.541666667 = A.D. 2020-Apr-04 01:00:00.0000 TDB 
 X =-1.455662130716423E+08 Y =-3.626749532419105E+07 Z = 8.478996978208423E+03
 VX= 6.942714650659522E+00 VY=-2.895317606079750E+01 VZ= 9.614380539328948E-04
 LT= 5.004001069663671E+02 RG= 1.500161780509101E+08 RR= 2.628683515092933E-01
2458943.583333333 = A.D. 2020-Apr-04 02:00:00.0000 TDB 
 X =-1.455411822725371E+08 Y =-3.637171700400019E+07 Z = 8.482472299339250E+03
 VX= 6.963283964429668E+00 VY=-2.894775486906332E+01 VZ= 9.693113617821325E-04
 LT= 5.004032635783754E+02 RG= 1.500171243793830E+08 RR= 2.628698270383799E-01
2458943.625000000 = A.D. 2020-Apr-04 03:00:00.0000 TDB 
 X =-1.455160774334923E+08 Y =-3.647591914271712E+07 Z = 8.485976130919531E+03
 VX= 6.983847949920270E+00 VY=-2.894231990134277E+01 VZ= 9.772770896212535E-04
 LT= 5.004064202130711E+02 RG= 1.500180707146575E+08 RR= 2.628721297706540E-01
2458943.666666667 = A.D. 2020-Apr-04 04:00:00.0000 TDB 
 X =-1.454908985736950E+08 Y =-3.658010169077951E+07 Z = 8.489508804537356E+03
 VX= 7.004406604301340E+00 VY=-2.893687117499618E+01 VZ= 9.853346122223883E-04
 LT= 5.004095768803738E+02 RG= 1.500190170597072E+08 RR= 2.628752573970854E-01
2458943.708333333 = A.D. 2020-Apr-04 05:00:00.0000 TDB 
 X =-1.454656457123418E+08 Y =-3.668426459868754E+07 Z = 8.493070649512112E+03
 VX= 7.024959924955500E+00 VY=-2.893140870735884E+01 VZ= 9.934832855460485E-04
 LT= 5.004127335901747E+02 RG= 1.500199634174976E+08 RR= 2.628792074460154E-01
2458943.750000000 = A.D. 2020-Apr-04 06:00:00.0000 TDB 
 X =-1.454403188686387E+08 Y =-3.678840781700371E+07 Z = 8.496661992779002E+03
 VX= 7.045507909479109E+00 VY=-2.892593251573723E+01 VZ= 1.001722446648756E-03
 LT= 5.004158903523338E+02 RG= 1.500209097909846E+08 RR= 2.628839772812723E-01
2458943.791666667 = A.D. 2020-Apr-04 07:00:00.0000 TDB 
 X =-1.454149180617996E+08 Y =-3.689253129635280E+07 Z = 8.500283158890903E+03
 VX= 7.066050555683317E+00 VY=-2.892044261740531E+01 VZ= 1.010051413558699E-03
 LT= 5.004190471766785E+02 RG= 1.500218561831144E+08 RR= 2.628895641003277E-01
2458943.833333333 = A.D. 2020-Apr-04 08:00:00.0000 TDB 
 X =-1.453894433110461E+08 Y =-3.699663498742167E+07 Z = 8.503934469886124E+03
 VX= 7.086587861595060E+00 VY=-2.891493902960064E+01 VZ= 1.018469485185136E-03
 LT= 5.004222040730023E+02 RG= 1.500228025968230E+08 RR= 2.628959649324509E-01
2458943.875000000 = A.D. 2020-Apr-04 09:00:00.0000 TDB 
 X =-1.453638946356066E+08 Y =-3.710071884095919E+07 Z = 8.507616245247424E+03
 VX= 7.107119825457979E+00 VY=-2.890942176952042E+01 VZ= 1.026975941222474E-03
 LT= 5.004253610510609E+02 RG= 1.500237490350350E+08 RR= 2.629031766369489E-01
2458943.916666667 = A.D. 2020-Apr-04 10:00:00.0000 TDB 
 X =-1.453382720547151E+08 Y =-3.720478280777608E+07 Z = 8.511328801838681E+03
 VX= 7.127646445733246E+00 VY=-2.890389085431764E+01 VZ= 1.035570042070333E-03
 LT= 5.004285181205720E+02 RG= 1.500246955006638E+08 RR= 2.629111959014375E-01
2458943.958333333 = A.D. 2020-Apr-04 11:00:00.0000 TDB 
 X =-1.453125755876112E+08 Y =-3.730882683874467E+07 Z = 8.515072453815490E+03
 VX= 7.148167721100339E+00 VY=-2.889834630109702E+01 VZ= 1.044251028764265E-03
 LT= 5.004316752912122E+02 RG= 1.500256419966104E+08 RR= 2.629200192401467E-01
2458944.000000000 = A.D. 2020-Apr-04 12:00:00.0000 TDB 
 X =-1.452868052535384E+08 Y =-3.741285088479881E+07 Z = 8.518847512571141E+03
 VX= 7.168683650457709E+00 VY=-2.889278812691088E+01 VZ= 1.053018122860294E-03
 LT= 5.004348325726154E+02 RG= 1.500265885257628E+08 RR= 2.629296429922827E-01
2458944.041666667 = A.D. 2020-Apr-04 13:00:00.0000 TDB 
 X =-1.452609610717441E+08 Y =-3.751685489693366E+07 Z = 8.522654286671430E+03
 VX= 7.189194232923381E+00 VY=-2.888721634875510E+01 VZ= 1.061870526433140E-03
 LT= 5.004379899743702E+02 RG= 1.500275350909958E+08 RR= 2.629400633204631E-01
2458944.083333333 = A.D. 2020-Apr-04 14:00:00.0000 TDB 
 X =-1.452350430614785E+08 Y =-3.762083882620542E+07 Z = 8.526493081757799E+03
 VX= 7.209699467835471E+00 VY=-2.888163098356492E+01 VZ= 1.070807421974962E-03
 LT= 5.004411475060186E+02 RG= 1.500284816951699E+08 RR= 2.629512762091455E-01
2458944.125000000 = A.D. 2020-Apr-04 15:00:00.0000 TDB 
 X =-1.452090512419933E+08 Y =-3.772480262373114E+07 Z = 8.530364200495183E+03
 VX= 7.230199354752605E+00 VY=-2.887603204821065E+01 VZ= 1.079827972342073E-03
 LT= 5.004443051770522E+02 RG= 1.500294283411306E+08 RR= 2.629632774631686E-01
